[{"OBJECT_NAME":"STARLINK-3619","OBJECT_ID":"2022-017V","EPOCH":"2026-03-09T22:28:26.086656","MEAN_MOTION":15.08831006,"ECCENTRICITY":0.00011926,"INCLINATION":53.2194,"RA_OF_ASC_NODE":348.0139,"ARG_OF_PERICENTER":93.0181,"MEAN_ANOMALY":267.0947,"EPHEMERIS_TYPE":0,"CLASSIFICATION_TYPE":"U","NORAD_CAT_ID":51787,"ELEMENT_SET_NO":999,"REV_AT_EPOCH":22231,"BSTAR":-7.553327e-6,"MEAN_MOTION_DOT":-4.08e-6,"MEAN_MOTION_DDOT":0},{"OBJECT_NAME":"CZ-6A DEB","OBJECT_ID":"2022-151UT","EPOCH":"2026-03-09T17:50:02.810976","MEAN_MOTION":14.9898329,"ECCENTRICITY":0.00453187,"INCLINATION":98.6222,"RA_OF_ASC_NODE":145.5138,"ARG_OF_PERICENTER":180.208,"MEAN_ANOMALY":179.9129,"EPHEMERIS_TYPE":0,"CLASSIFICATION_TYPE":"U","NORAD_CAT_ID":55003,"ELEMENT_SET_NO":999,"REV_AT_EPOCH":17561,"BSTAR":0.0047870048,"MEAN_MOTION_DOT":0.00059614,"MEAN_MOTION_DDOT":0}]
